satname,norad_id,inclination_deg,eccentricity,mean_motion_rev_per_day,perigee_km,apogee_km,l1,l2
STARLINK-1184,45098,53.0548,0.0005939,15.09518123,533.5641156158845,541.7787128503096,1 45098U 20006BG  26046.22570668  .00032543  00000+0  20149-2 0  9992,2 45098  53.0548 346.8017 0005939  72.4933 287.6706 15.09518123333646
STARLINK-1193,45100,53.0547,0.0005397,15.48399785,417.7370457648567,425.0764732988964,1 45100U 20006BJ  26046.91668981  .00053624  00000+0  99629-3 0  9991,2 45100  53.0547 335.1472 0005397 122.5007  91.1107 15.48399785  5869
STARLINK-1143,45179,53.0475,0.0004702,15.57049007,393.0176569699579,399.388246260457,1 45179U 20012B   26046.39518586  .00041083  00000+0  56157-3 0  9996,2 45179  53.0475  78.4646 0004702 354.7342   5.3618 15.57049007332445
STARLINK-1202,45183,53.1598,0.0001258,15.30217529,474.3005863783519,476.0248765907936,1 45183U 20012F   26046.74273622  .00006876  00000+0  24393-3 0  9997,2 45183  53.1598 141.1916 0001258  89.2829 270.8316 15.30217529331594
STARLINK-1216,45185,53.1621,0.0001296,15.30202456,474.31954277801105,476.0959297336476,1 45185U 20012H   26046.66794428  .00004970  00000+0  17979-3 0  9997,2 45185  53.1621 141.5171 0001296  82.8238 277.2910 15.30202456331522
STARLINK-1225,45187,53.162,0.0001318,15.30223937,474.2403364007596,476.0468611665983,1 45187U 20012K   26046.66484897  .00015035  00000+0  51833-3 0  9996,2 45187  53.1620 141.9711 0001318  97.4627 262.6523 15.30223937331565
STARLINK-1230,45189,53.1615,0.0001244,15.30200212,474.36187950691965,476.0669933443023,1 45189U 20012M   26046.73965946  .00000094  00000+0  15295-4 0  9997,2 45189  53.1615 141.6858 0001244  87.9684 272.1459 15.30200212328803
STARLINK-1234,45190,53.045,0.000626,15.5699459,392.1199573116428,400.6016285483911,1 45190U 20012N   26046.41396478  .00130777  00000+0  17562-2 0  9991,2 45190  53.0450  73.7431 0006260 265.1338  94.8958 15.56994590332403
STARLINK-1269,45197,53.1615,0.0001215,15.30210453,474.3511803388128,476.01653730750695,1 45197U 20012V   26046.67116445  .00007728  00000+0  27269-3 0  9995,2 45197  53.1615 141.8626 0001215  96.0520 264.0620 15.30210453331548
STARLINK-1154,45198,53.0501,0.0006063,15.42493497,434.61982603029446,442.88598673077104,1 45198U 20012W   26046.48555058  .00043991  00000+0  10027-2 0  9997,2 45198  53.0501 115.6182 0006063   2.8757 357.2282 15.42493497331869
STARLINK-1199,45201,53.0784,0.0001994,15.1310153,525.3713438327932,528.1250120417553,1 45201U 20012Z   26046.91668981  .00054667  00000+0  30458-2 0  9992,2 45201  53.0784 124.2939 0001994  46.9894  48.3387 15.13101530  5686
STARLINK-1209,45206,53.0482,0.0007484,15.46931284,420.617282475072,430.80127958852063,1 45206U 20012AE  26046.41324996  .00104295  00000+0  20168-2 0  9997,2 45206  53.0482  80.1600 0007484 226.6850 133.3533 15.46931284331469
STARLINK-1210,45207,53.0102,0.0005827,15.9952323,271.8633730195279,279.61780195998927,1 45207U 20012AF  26046.91668981  .00511012  12402-3  10043-2 0  9991,2 45207  53.0102  12.0475 0005827  91.4092   6.2065 15.99523230  6078
STARLINK-1231,45212,53.0465,0.0003018,15.19170938,506.2665891177485,510.42326961031176,1 45212U 20012AL  26046.58771942  .00035205  00000+0  16604-2 0  9993,2 45212  53.0465 117.1341 0003018 356.5491   3.5482 15.19170938331869
STARLINK-1271,45217,53.07,0.0002266,15.11095512,531.2917365463964,534.4237993752358,1 45217U 20012AR  26046.91668981  .00054133  00000+0  31893-2 0  9991,2 45217  53.0700 124.3349 0002266  78.2773  74.5484 15.11095512  5739
STARLINK-1191,45222,53.159,0.00016,15.31061505,471.54785205680764,473.74010196945164,1 45222U 20012AW  26046.66345179  .00006345  00000+0  22032-3 0  9998,2 45222  53.1590 101.1893 0001600  98.9305 261.1878 15.31061505332147
STARLINK-1212,45223,53.0529,0.0004723,15.4425968,430.33706315537347,436.7713866864342,1 45223U 20012AX  26046.77877781  .00083303  00000+0  17726-2 0  9992,2 45223  53.0529  94.9938 0004723  25.7947 334.3293 15.44259680332249
STARLINK-1215,45225,53.1582,0.000115,15.30218583,474.37145538522964,475.9477135996631,1 45225U 20012AZ  26046.57931358  .00011217  00000+0  39004-3 0  9992,2 45225  53.1582 101.0068 0001150  91.6567 268.4565 15.30218583332090
STARLINK-1221,45227,53.0671,0.0002272,15.41061743,441.42474090619635,444.52425397063234,1 45227U 20012BB  26046.28381830  .00020586  00000+0  49900-3 0  9991,2 45227  53.0671  15.7152 0002272 350.3506   9.7454 15.41061743333257
STARLINK-1222,45228,53.0548,0.0002843,15.47994637,420.6596646506068,424.52655979241536,1 45228U 20012BC  26046.61627748  .00061286  00000+0  11529-2 0  9997,2 45228  53.0548  88.5254 0002843  25.5342 334.5805 15.47994637332201
STARLINK-1226,45229,53.1606,0.0001462,15.3103986,471.70695162621087,473.7101388636411,1 45229U 20012BD  26046.41896689  .00002151  00000+0  82654-4 0  9993,2 45229  53.1606 102.1303 0001462  91.7778 268.3390 15.31039860332002
STARLINK-1227,45230,53.1606,0.0001402,15.31038828,471.75113481892913,473.6721127730407,1 45230U 20012BE  26046.57718961  .00000022  00000+0  12641-4 0  9992,2 45230  53.1606 101.7078 0001402  94.7082 265.4079 15.31038828332143
STARLINK-1246,45235,53.1594,0.0001296,15.30204023,474.31486462134126,476.091250364243,1 45235U 20012BK  26046.74590098  .00003767  00000+0  13924-3 0  9998,2 45235  53.1594 141.1735 0001296 100.6428 259.4719 15.30204023331610
STARLINK-1270,45237,53.0504,0.0003827,15.43256745,433.8971394838518,439.1130665495011,1 45237U 20012BM  26046.58839365  .00074421  00000+0  16412-2 0  9994,2 45237  53.0504  92.8148 0003827 343.3288  16.7591 15.43256745332259
STARLINK-1279,45360,53.0438,0.0005155,15.52979829,404.5331122637017,411.5296518656096,1 45360U 20019A   26046.91668981  .00130176  00000+0  20259-2 0  9993,2 45360  53.0438 203.9951 0005155 139.8250 249.3327 15.52979829  5806
STARLINK-1301,45361,53.044,0.0007144,15.59691142,383.71612796466343,393.38437070651344,1 45361U 20019B   26046.91668981  .00157523  00000+0  19032-2 0  9996,2 45361  53.0440 210.5289 0007144 140.6070 248.1044 15.59691142  5920
STARLINK-1262,45366,53.0538,0.0001506,15.06402053,546.1623092508817,548.248222341339,1 45366U 20019G   26046.79756343 -.00002685  00000+0 -16142-3 0  9997,2 45366  53.0538 264.8941 0001506 100.0861 260.0297 15.06402053326432
STARLINK-1273,45367,53.0521,0.0002308,15.41724096,439.44684603640053,442.5945692342448,1 45367U 20019H   26046.77139535  .00075330  00000+0  17486-2 0  9990,2 45367  53.0521 258.8806 0002308 138.5884 221.5296 15.41724096326513
STARLINK-1276,45368,53.0552,0.0001724,15.06419707,545.9572398013634,548.3450791587529,1 45368U 20019J   26046.79017823  .00002976  00000+0  21852-3 0  9997,2 45368  53.0552 264.9286 0001724  93.6598 266.4588 15.06419707326436
STARLINK-1277,45369,53.0523,0.0001696,15.44832433,430.7155018436242,433.02545638053925,1 45369U 20019K   26046.79081205  .00117596  00000+0  24403-2 0  9992,2 45369  53.0523 257.1837 0001696  66.7726 293.3458 15.44832433326547
STARLINK-1281,45370,53.0527,0.0001678,15.06412437,546.0113734948536,548.3355076787157,1 45370U 20019L   26046.77915622 -.00004812  00000+0 -30427-3 0  9993,2 45370  53.0527 264.9788 0001678 108.0288 252.0884 15.06412437326436
STARLINK-1300,45374,53.0564,0.0001293,15.06423542,546.2439677993034,548.0348442779041,1 45374U 20019Q   26046.80123936 -.00000703  00000+0 -28293-4 0  9994,2 45374  53.0564 264.8718 0001293  99.8927 260.2208 15.06423542326433
STARLINK-1302,45375,53.0512,0.0002501,15.45970994,426.8241453165674,430.2288383951927,1 45375U 20019R   26046.76252696  .00120123  00000+0  23967-2 0  9994,2 45375  53.0512 256.7429 0002501 143.1603 216.9575 15.45970994326541
STARLINK-1304,45376,53.052,0.0004699,15.44430102,429.85254128530323,436.2536977596301,1 45376U 20019S   26046.79814825  .00067885  00000+0  14408-2 0  9991,2 45376  53.0520 253.9448 0004699 152.5812 207.5443 15.44430102326582
STARLINK-1305,45377,53.0465,0.0006132,15.48618014,416.5988681252529,424.9370451640825,1 45377U 20019T   26046.79742198  .00047286  00000+0  87342-3 0  9996,2 45377  53.0465 237.4310 0006132 105.9706 254.1977 15.48618014326825
STARLINK-1319,45379,53.0459,0.0005545,15.54570191,399.6419553891619,407.1626824938676,1 45379U 20019V   26046.74616424  .00109211  00000+0  16095-2 0  9998,2 45379  53.0459 236.4444 0005545 126.6308 233.5213 15.54570191326837
STARLINK-1266,45383,53.0521,0.0001989,15.42126617,438.4779516183644,441.19014050048645,1 45383U 20019Z   26046.77584565  .00023329  00000+0  54446-3 0  9994,2 45383  53.0521 237.1167 0001989 146.6428 213.4702 15.42126617326810
STARLINK-1267,45384,53.053,0.0007757,15.45838222,423.63600450167905,434.19646689153797,1 45384U 20019AA  26046.79326720  .00034503  00000+0  70481-3 0  9997,2 45384  53.0530 231.7022 0007757 160.7078 199.4223 15.45838222326892
STARLINK-1272,45386,53.0458,0.0005779,15.51882823,407.30546751460133,415.1526167861184,1 45386U 20019AC  26046.73833166  .00096254  00000+0  15667-2 0  9995,2 45386  53.0458 215.7679 0005779 133.1015 227.0478 15.51882823327119
STARLINK-1274,45387,53.0274,0.000781,15.44263113,428.2242067253028,438.8640526498739,1 45387U 20019AD  26046.91668981  .00116076  00000+0  24542-2 0  9994,2 45387  53.0274 206.7684 0007810 156.9501 126.6419 15.44263113  5954
STARLINK-1280,45388,53.045,0.0005671,15.60891778,381.24443248969055,388.9152730440992,1 45388U 20019AE  26046.91668981  .00156110  00000+0  18026-2 0  9998,2 45388  53.0450 229.1072 0005671 121.0881 238.9144 15.60891778  5918
STARLINK-1283,45389,53.0457,0.0009731,15.51608389,405.42206722467927,418.6370894194097,1 45389U 20019AF  26046.91668981  .00117080  00000+0  19156-2 0  9997,2 45389  53.0457 215.0965 0009731 153.6764 205.5942 15.51608389  5902
STARLINK-1284,45390,53.0497,0.0002321,15.4782765,421.50367049095894,424.6607964591385,1 45390U 20019AG  26046.75104724  .00083355  00000+0  15698-2 0  9995,2 45390  53.0497 236.2102 0002321 162.9337 197.1749 15.47827650326820
